SPAWAR-CAL-R            
1 43776U 18099U   26067.65115975  .00003570  00000+0  25336-3 0  9990
2 43776  97.4524 111.5817 0019701 348.9052  11.1737 15.05212097396878
STARLINK-4724           
1 53702U 22107C   26068.67511235 -.00000676  00000+0 -24367-4 0  9997
2 53702  53.2171 229.0876 0001011  70.0225 290.0876 15.08844294195092
